{
  "type": "FeatureCollection",
  "features": [
    {
      "type": "Feature",
      "properties": {
        "norad_id": 41772,
        "name": "SKYSAT-C5",
        "group": "resource",
        "lat": 54.56715594671473,
        "lon": -136.17240123695672,
        "alt_km": 459.63669604005736,
        "timestamp": "2025-12-16T03:53:26.716292+00:00",
        "meta_object_name": "SKYSAT-C5",
        "meta_object_id": "2016-058C",
        "meta_epoch": "2025-12-15T02:18:12.349728",
        "meta_mean_motion": 15.3421872,
        "meta_eccentricity": 0.00028005,
        "meta_inclination": 97.0769,
        "meta_ra_of_asc_node": 32.7498,
        "meta_arg_of_pericenter": 272.3559,
        "meta_mean_anomaly": 87.7364,
        "meta_ephemeris_type": 0,
        "meta_classification_type": "U",
        "meta_norad_cat_id": 41772,
        "meta_element_set_no": 999,
        "meta_rev_at_epoch": 51552,
        "meta_bstar": 0.00020064542,
        "meta_mean_motion_dot": 6.571e-05,
        "meta_mean_motion_ddot": 0,
        "tle_line1": "1 41772U 16058C   25349.09597627  .00006571  00000+0  20065-3 0  9993",
        "tle_line2": "2 41772  97.0769  32.7498 0002800 272.3559  87.7364 15.34218720515523"
      },
      "geometry": {
        "type": "Point",
        "coordinates": [
          -136.17240123695672,
          54.56715594671473
        ]
      }
    },
    {
      "type": "Feature",
      "properties": {
        "norad_id": 41773,
        "name": "SKYSAT-C2",
        "group": "resource",
        "lat": 7.7516636591049295,
        "lon": -164.49211877035947,
        "alt_km": 458.2831061952238,
        "timestamp": "2025-12-16T03:53:26.716302+00:00",
        "meta_object_name": "SKYSAT-C2",
        "meta_object_id": "2016-058D",
        "meta_epoch": "2025-12-15T08:23:56.191488",
        "meta_mean_motion": 15.37335005,
        "meta_eccentricity": 0.00039673,
        "meta_inclination": 97.0366,
        "meta_ra_of_asc_node": 13.7665,
        "meta_arg_of_pericenter": 27.9981,
        "meta_mean_anomaly": 332.1477,
        "meta_ephemeris_type": 0,
        "meta_classification_type": "U",
        "meta_norad_cat_id": 41773,
        "meta_element_set_no": 999,
        "meta_rev_at_epoch": 51676,
        "meta_bstar": 0.00024326414,
        "meta_mean_motion_dot": 8.826e-05,
        "meta_mean_motion_ddot": 0,
        "tle_line1": "1 41773U 16058D   25349.34995592  .00008826  00000+0  24326-3 0  9994",
        "tle_line2": "2 41773  97.0366  13.7665 0003967  27.9981 332.1477 15.37335005516768"
      },
      "geometry": {
        "type": "Point",
        "coordinates": [
          -164.49211877035947,
          7.7516636591049295
        ]
      }
    },
    {
      "type": "Feature",
      "properties": {
        "norad_id": 41774,
        "name": "SKYSAT-C3",
        "group": "resource",
        "lat": 82.91694874471057,
        "lon": -54.464796074157654,
        "alt_km": 424.1912505093251,
        "timestamp": "2025-12-16T03:53:26.716312+00:00",
        "meta_object_name": "SKYSAT-C3",
        "meta_object_id": "2016-058E",
        "meta_epoch": "2025-12-15T08:50:59.272512",
        "meta_mean_motion": 15.44496263,
        "meta_eccentricity": 0.00017492,
        "meta_inclination": 96.9303,
        "meta_ra_of_asc_node": 22.9925,
        "meta_arg_of_pericenter": 108.9377,
        "meta_mean_anomaly": 251.2062,
        "meta_ephemeris_type": 0,
        "meta_classification_type": "U",
        "meta_norad_cat_id": 41774,
        "meta_element_set_no": 999,
        "meta_rev_at_epoch": 51766,
        "meta_bstar": 0.00028666899,
        "meta_mean_motion_dot": 0.00013211,
        "meta_mean_motion_ddot": 0,
        "tle_line1": "1 41774U 16058E   25349.36874158  .00013211  00000+0  28667-3 0  9997",
        "tle_line2": "2 41774  96.9303  22.9925 0001749 108.9377 251.2062 15.44496263517667"
      },
      "geometry": {
        "type": "Point",
        "coordinates": [
          -54.464796074157654,
          82.91694874471057
        ]
      }
    },
    {
      "type": "Feature",
      "properties": {
        "norad_id": 41785,
        "name": "ALSAT 1B",
        "group": "resource",
        "lat": 42.58451080550323,
        "lon": -170.97503236641197,
        "alt_km": 645.4667690096385,
        "timestamp": "2025-12-16T03:53:26.716323+00:00",
        "meta_object_name": "ALSAT 1B",
        "meta_object_id": "2016-059C",
        "meta_epoch": "2025-12-15T07:41:46.020192",
        "meta_mean_motion": 14.72079101,
        "meta_eccentricity": 0.0010768,
        "meta_inclination": 97.7819,
        "meta_ra_of_asc_node": 0.9996,
        "meta_arg_of_pericenter": 95.9445,
        "meta_mean_anomaly": 264.2991,
        "meta_ephemeris_type": 0,
        "meta_classification_type": "U",
        "meta_norad_cat_id": 41785,
        "meta_element_set_no": 999,
        "meta_rev_at_epoch": 49352,
        "meta_bstar": 0.00010061204,
        "meta_mean_motion_dot": 5.86e-06,
        "meta_mean_motion_ddot": 0,
        "tle_line1": "1 41785U 16059C   25349.32067153  .00000586  00000+0  10061-3 0  9995",
        "tle_line2": "2 41785  97.7819   0.9996 0010768  95.9445 264.2991 14.72079101493527"
      },
      "geometry": {
        "type": "Point",
        "coordinates": [
          -170.97503236641197,
          42.58451080550323
        ]
      }
    },
    {
      "type": "Feature",
      "properties": {
        "norad_id": 41787,
        "name": "PATHFINDER 1",
        "group": "resource",
        "lat": 22.458864194253813,
        "lon": 176.03108494129347,
        "alt_km": 667.9744282839602,
        "timestamp": "2025-12-16T03:53:26.716334+00:00",
        "meta_object_name": "PATHFINDER 1",
        "meta_object_id": "2016-059E",
        "meta_epoch": "2025-12-14T23:21:25.864128",
        "meta_mean_motion": 14.67324826,
        "meta_eccentricity": 0.003,
        "meta_inclination": 97.8138,
        "meta_ra_of_asc_node": 351.6432,
        "meta_arg_of_pericenter": 74.4434,
        "meta_mean_anomaly": 286.0079,
        "meta_ephemeris_type": 0,
        "meta_classification_type": "U",
        "meta_norad_cat_id": 41787,
        "meta_element_set_no": 999,
        "meta_rev_at_epoch": 49269,
        "meta_bstar": 0.00015861249,
        "meta_mean_motion_dot": 8.55e-06,
        "meta_mean_motion_ddot": 0,
        "tle_line1": "1 41787U 16059E   25348.97321602  .00000855  00000+0  15861-3 0  9991",
        "tle_line2": "2 41787  97.8138 351.6432 0030000  74.4434 286.0079 14.67324826492693"
      },
      "geometry": {
        "type": "Point",
        "coordinates": [
          176.03108494129347,
          22.458864194253813
        ]
      }
    },
    {
      "type": "Feature",
      "properties": {
        "norad_id": 41790,
        "name": "SCATSAT 1",
        "group": "resource",
        "lat": -66.13044074881712,
        "lon": 65.76330589645298,
        "alt_km": 679.273152470123,
        "timestamp": "2025-12-16T03:53:26.716344+00:00",
        "meta_object_name": "SCATSAT 1",
        "meta_object_id": "2016-059H",
        "meta_epoch": "2025-12-15T03:50:30.741792",
        "meta_mean_motion": 14.78946123,
        "meta_eccentricity": 0.00563614,
        "meta_inclination": 98.1466,
        "meta_ra_of_asc_node": 45.8607,
        "meta_arg_of_pericenter": 120.3431,
        "meta_mean_anomaly": 240.337,
        "meta_ephemeris_type": 0,
        "meta_classification_type": "U",
        "meta_norad_cat_id": 41790,
        "meta_element_set_no": 999,
        "meta_rev_at_epoch": 7438,
        "meta_bstar": 0.00018396145,
        "meta_mean_motion_dot": 1.337e-05,
        "meta_mean_motion_ddot": 0,
        "tle_line1": "1 41790U 16059H   25349.16007803  .00001337  00000+0  18396-3 0  9993",
        "tle_line2": "2 41790  98.1466  45.8607 0056361 120.3431 240.3370 14.78946123 74388"
      },
      "geometry": {
        "type": "Point",
        "coordinates": [
          65.76330589645298,
          -66.13044074881712
        ]
      }
    },
    {
      "type": "Feature",
      "properties": {
        "norad_id": 41875,
        "name": "GOKTURK 1A",
        "group": "resource",
        "lat": 1.581035054032675,
        "lon": 62.708067665912274,
        "alt_km": 687.1500113383399,
        "timestamp": "2025-12-16T03:53:26.716355+00:00",
        "meta_object_name": "GOKTURK 1A",
        "meta_object_id": "2016-073A",
        "meta_epoch": "2025-12-15T07:22:41.556288",
        "meta_mean_motion": 14.62784231,
        "meta_eccentricity": 0.0001241,
        "meta_inclination": 98.1428,
        "meta_ra_of_asc_node": 241.6386,
        "meta_arg_of_pericenter": 79.4934,
        "meta_mean_anomaly": 280.6407,
        "meta_ephemeris_type": 0,
        "meta_classification_type": "U",
        "meta_norad_cat_id": 41875,
        "meta_element_set_no": 999,
        "meta_rev_at_epoch": 48194,
        "meta_bstar": 0.00015452215,
        "meta_mean_motion_dot": 7.41e-06,
        "meta_mean_motion_ddot": 0,
        "tle_line1": "1 41875U 16073A   25349.30742542  .00000741  00000+0  15452-3 0  9993",
        "tle_line2": "2 41875  98.1428 241.6386 0001241  79.4934 280.6407 14.62784231481944"
      },
      "geometry": {
        "type": "Point",
        "coordinates": [
          62.708067665912274,
          1.581035054032675
        ]
      }
    }
  ]
}